0 COSMOS 2251 DEB
1 34721U 93036YP  13281.69259528  .00000956  00000-0  69746-3 0  7712
2 34721 073.9299 017.1480 0243456 117.4268 038.3037 13.84141410234057
0 COSMOS 2251 DEB
1 34721U 93036YP  13282.98495668  .00000878  00000-0  64201-3 0  7727
2 34721 073.9300 014.9538 0243393 114.9658 358.0332 13.84144699234236
0 COSMOS 2251 DEB
1 34721U 93036YP  13285.28691653  .00000780  00000-0  57213-3 0  7733
2 34721 073.9302 011.0457 0243380 110.5658 308.5530 13.84148276234554
0 COSMOS 2251 DEB
1 34721U 93036YP  13286.67820024  .00000901  00000-0  65900-3 0  7741
2 34721 073.9298 008.6834 0243187 107.9328 041.2258 13.84149707234747
0 COSMOS 2251 DEB
1 34721U 93036YP  13287.69051874  .00000960  00000-0  70066-3 0  7758
2 34721 073.9297 006.9646 0243090 106.0044 045.5553 13.84152534234888
0 COSMOS 2251 DEB
1 34721U 93036YP  13289.18396207  .00000944  00000-0  68941-3 0  7768
2 34721 073.9293 004.4290 0243066 103.1557 287.3280 13.84156776235080
0 COSMOS 2251 DEB
1 34721U 93036YP  13290.19632307  .00000942  00000-0  68820-3 0  7770
2 34721 073.9290 002.7101 0243086 101.2234 291.8987 13.84158202235228
0 COSMOS 2251 DEB
1 34721U 93036YP  13291.20828986  .00000889  00000-0  65024-3 0  7787
2 34721 073.9289 000.9918 0243022 099.2925 294.5115 13.84160124235369
0 COSMOS 2251 DEB
1 34721U 93036YP  13292.51504749  .00000891  00000-0  65173-3 0  7799
2 34721 073.9291 358.7731 0242871 096.7973 326.0743 13.84162279235557
0 COSMOS 2251 DEB
1 34721U 93036YP  13293.52695838  .00000945  00000-0  69020-3 0  7808
2 34721 073.9292 357.0550 0242796 094.8644 328.4264 13.84163893235691
0 COSMOS 2251 DEB
1 34721U 93036YP  13294.62848420  .00000990  00000-0  72240-3 0  7816
2 34721 073.9291 355.1846 0242738 092.7550 057.3435 13.84166309235846
